*******************************************************************************
Ephemeris / WWW_USER Fri Mar  7 11:08:11 2025 Pasadena, USA      / Horizons    
*******************************************************************************
Target body name: (2018 US2)                      {source: JPL#14}
Center body name: Earth (399)                     {source: DE441}
Center-site name: Mauna Kea
*******************************************************************************
Start time      : A.D. 2018-Oct-22 04:03:00.0000 UT      
Stop  time      : A.D. 2018-Oct-22 16:09:00.0000 UT      
Step-size       : 1 minutes
*******************************************************************************
Target pole/equ : undefined
Target radii    : undefined                                                    
Center geodetic : 204.5278, 19.8260847, 4.21024   {E-lon(deg),Lat(deg),Alt(km)}
Center cylindric: 204.5278, 6006.35451, 2151.0229 {E-lon(deg),Dxy(km),Dz(km)}
Center pole/equ : ITRF93                          {East-longitude positive}
Center radii    : 6378.137, 6378.137, 6356.752 km {Equator_a, b, pole_c}       
Target primary  : Sun
Vis. interferer : MOON (R_eq= 1737.400) km        {source: DE441}
Rel. light bend : Sun                             {source: DE441}
Rel. lght bnd GM: 1.3271E+11 km^3/s^2                                          
Small-body perts: Yes                             {source: SB441-N16}
Atmos refraction: NO (AIRLESS)
RA format       : HMS
Time format     : CAL 
Calendar mode   : Mixed Julian/Gregorian
RTS-only print  : NO       
EOP file        : eop.250306.p250602                                           
EOP coverage    : DATA-BASED 1962-JAN-20 TO 2025-MAR-06. PREDICTS-> 2025-JUN-01
Units conversion: 1 au= 149597870.700 km, c= 299792.458 km/s, 1 day= 86400.0 s 
Table cut-offs 1: Elevation (-90.0deg=NO ),Airmass (>38.000=NO), Daylight (YES)
Table cut-offs 2: Solar elongation (  0.0,180.0=NO ),Local Hour Angle( 0.0=NO )
Table cut-offs 3: RA/DEC angular rate (     0.0=NO )                           
*******************************************************************************
Initial IAU76/J2000 heliocentric ecliptic osculating elements (au, days, deg.):
  EPOCH=  2458424.5 ! 2018-Nov-02.00 (TDB)         Residual RMS= .2503         
   EC= .6580934192644969   QR= 1.019516546973241   TP= 2458405.4003266119      
   OM= 225.9089147719754   W=  151.3321843630243   IN= 7.044798776353047       
  Equivalent ICRF heliocentric cartesian coordinates (au, au/d):
   X= 8.026033061055595E-01  Y= 6.200562709856074E-01  Z= 2.826199844552283E-01
  VX=-1.102263624249032E-02 VY= 1.780430100977025E-02 VZ= 4.937770740848229E-03
Asteroid physical parameters (km, seconds, rotational period in hours):        
   GM= n.a.                RAD= n.a.               ROTPER= n.a.                
   H= 24.88                G= .150                 B-V= n.a.                   
                           ALBEDO= n.a.            STYP= n.a.                  
*******************************************************************************
 Date__(UT)__HR:MN     R.A._________(ICRF)_________DEC
******************************************************
$$SOE
 2018-Oct-22 14:18  m  22 30 34.382549 +44 42 12.71255
 2018-Oct-22 14:19  m  22 30 35.719666 +44 42 15.82853
 2018-Oct-22 14:20  m  22 30 37.057149 +44 42 18.94447
 2018-Oct-22 14:21  m  22 30 38.394998 +44 42 22.06039
 2018-Oct-22 14:22  m  22 30 39.733213 +44 42 25.17628
 2018-Oct-22 14:23  m  22 30 41.071794 +44 42 28.29217
 2018-Oct-22 14:24  m  22 30 42.410740 +44 42 31.40805
 2018-Oct-22 14:25  m  22 30 43.750050 +44 42 34.52394
 2018-Oct-22 14:26  m  22 30 45.089724 +44 42 37.63983
 2018-Oct-22 14:27  m  22 30 46.429762 +44 42 40.75575
 2018-Oct-22 14:28  m  22 30 47.770163 +44 42 43.87170
 2018-Oct-22 14:29  m  22 30 49.110927 +44 42 46.98769
 2018-Oct-22 14:30  m  22 30 50.452053 +44 42 50.10371
 2018-Oct-22 14:31  s  22 30 51.793541 +44 42 53.21979
 2018-Oct-22 14:32  m  22 30 53.135390 +44 42 56.33594
 2018-Oct-22 14:33  m  22 30 54.477599 +44 42 59.45215
 2018-Oct-22 14:34  m  22 30 55.820169 +44 43 02.56843
 2018-Oct-22 14:35  m  22 30 57.163099 +44 43 05.68480
 2018-Oct-22 14:36  m  22 30 58.506388 +44 43 08.80126
 2018-Oct-22 14:37  m  22 30 59.850035 +44 43 11.91782
 2018-Oct-22 14:38  m  22 31 01.194041 +44 43 15.03448
 2018-Oct-22 14:39  m  22 31 02.538405 +44 43 18.15127
 2018-Oct-22 14:40  m  22 31 03.883125 +44 43 21.26817
 2018-Oct-22 14:41  m  22 31 05.228203 +44 43 24.38520
 2018-Oct-22 14:42  m  22 31 06.573636 +44 43 27.50238
 2018-Oct-22 14:43  m  22 31 07.919425 +44 43 30.61969
 2018-Oct-22 14:44  m  22 31 09.265569 +44 43 33.73717
 2018-Oct-22 14:45     22 31 10.612068 +44 43 36.85480
 2018-Oct-22 14:46     22 31 11.958920 +44 43 39.97260
 2018-Oct-22 14:47     22 31 13.306126 +44 43 43.09058
 2018-Oct-22 14:48     22 31 14.653685 +44 43 46.20874
 2018-Oct-22 14:49     22 31 16.001596 +44 43 49.32709
 2018-Oct-22 14:50     22 31 17.349858 +44 43 52.44565
 2018-Oct-22 14:51     22 31 18.698472 +44 43 55.56441
 2018-Oct-22 14:52     22 31 20.047437 +44 43 58.68338
 2018-Oct-22 14:53     22 31 21.396751 +44 44 01.80258
 2018-Oct-22 14:54     22 31 22.746415 +44 44 04.92200
 2018-Oct-22 14:55     22 31 24.096427 +44 44 08.04166
 2018-Oct-22 14:56     22 31 25.446788 +44 44 11.16157
 2018-Oct-22 14:57     22 31 26.797496 +44 44 14.28173
 2018-Oct-22 14:58     22 31 28.148551 +44 44 17.40214
 2018-Oct-22 14:59     22 31 29.499953 +44 44 20.52283
 2018-Oct-22 15:00     22 31 30.851700 +44 44 23.64378
 2018-Oct-22 15:01     22 31 32.203793 +44 44 26.76502
 2018-Oct-22 15:02     22 31 33.556230 +44 44 29.88655
 2018-Oct-22 15:03     22 31 34.909011 +44 44 33.00838
 2018-Oct-22 15:04     22 31 36.262135 +44 44 36.13050
 2018-Oct-22 15:05     22 31 37.615602 +44 44 39.25294
 2018-Oct-22 15:06 A   22 31 38.969411 +44 44 42.37570
 2018-Oct-22 15:07 A   22 31 40.323561 +44 44 45.49878
 2018-Oct-22 15:08 A   22 31 41.678052 +44 44 48.62219
 2018-Oct-22 15:09 A   22 31 43.032884 +44 44 51.74595
 2018-Oct-22 15:10 A   22 31 44.388054 +44 44 54.87005
 2018-Oct-22 15:11 A   22 31 45.743563 +44 44 57.99450
 2018-Oct-22 15:12 A   22 31 47.099411 +44 45 01.11932
 2018-Oct-22 15:13 A   22 31 48.455595 +44 45 04.24450
 2018-Oct-22 15:14 A   22 31 49.812117 +44 45 07.37006
 2018-Oct-22 15:15 A   22 31 51.168975 +44 45 10.49600
 2018-Oct-22 15:16 A   22 31 52.526168 +44 45 13.62233
 2018-Oct-22 15:17 A   22 31 53.883695 +44 45 16.74906
 2018-Oct-22 15:18 A   22 31 55.241557 +44 45 19.87620
 2018-Oct-22 15:19 A   22 31 56.599752 +44 45 23.00374
 2018-Oct-22 15:20 A   22 31 57.958280 +44 45 26.13170
 2018-Oct-22 15:21 A   22 31 59.317139 +44 45 29.26009
 2018-Oct-22 15:22 A   22 32 00.676330 +44 45 32.38890
 2018-Oct-22 15:23 A   22 32 02.035851 +44 45 35.51816
 2018-Oct-22 15:24 A   22 32 03.395703 +44 45 38.64786
 2018-Oct-22 15:25 A   22 32 04.755883 +44 45 41.77801
 2018-Oct-22 15:26 A   22 32 06.116391 +44 45 44.90863
 2018-Oct-22 15:27 A   22 32 07.477227 +44 45 48.03971
 2018-Oct-22 15:28 A   22 32 08.838391 +44 45 51.17126
 2018-Oct-22 15:29 A   22 32 10.199880 +44 45 54.30329
 2018-Oct-22 15:30 A   22 32 11.561695 +44 45 57.43581
 2018-Oct-22 15:31 N   22 32 12.923834 +44 46 00.56882
 2018-Oct-22 15:32 N   22 32 14.286297 +44 46 03.70233
 2018-Oct-22 15:33 N   22 32 15.649084 +44 46 06.83635
 2018-Oct-22 15:34 N   22 32 17.012193 +44 46 09.97088
 2018-Oct-22 15:35 N   22 32 18.375624 +44 46 13.10593
 2018-Oct-22 15:36 N   22 32 19.739375 +44 46 16.24150
 2018-Oct-22 15:37 N   22 32 21.103447 +44 46 19.37761
 2018-Oct-22 15:38 N   22 32 22.467838 +44 46 22.51426
 2018-Oct-22 15:39 N   22 32 23.832548 +44 46 25.65146
 2018-Oct-22 15:40 N   22 32 25.197575 +44 46 28.78921
 2018-Oct-22 15:41 N   22 32 26.562920 +44 46 31.92752
 2018-Oct-22 15:42 N   22 32 27.928581 +44 46 35.06639
 2018-Oct-22 15:43 N   22 32 29.294557 +44 46 38.20583
 2018-Oct-22 15:44 N   22 32 30.660848 +44 46 41.34586
 2018-Oct-22 15:45 N   22 32 32.027453 +44 46 44.48647
 2018-Oct-22 15:46 N   22 32 33.394371 +44 46 47.62767
 2018-Oct-22 15:47 N   22 32 34.761602 +44 46 50.76947
 2018-Oct-22 15:48 N   22 32 36.129144 +44 46 53.91187
 2018-Oct-22 15:49 N   22 32 37.496996 +44 46 57.05488
 2018-Oct-22 15:50 N   22 32 38.865159 +44 47 00.19851
 2018-Oct-22 15:51 N   22 32 40.233630 +44 47 03.34276
 2018-Oct-22 15:52 N   22 32 41.602410 +44 47 06.48764
 2018-Oct-22 15:53 N   22 32 42.971497 +44 47 09.63316
 2018-Oct-22 15:54 N   22 32 44.340890 +44 47 12.77932
 2018-Oct-22 15:55 N   22 32 45.710590 +44 47 15.92612
 2018-Oct-22 15:56 N   22 32 47.080594 +44 47 19.07358
 2018-Oct-22 15:57 C   22 32 48.450902 +44 47 22.22170
 2018-Oct-22 15:58 C   22 32 49.821514 +44 47 25.37048
 2018-Oct-22 15:59 C   22 32 51.192427 +44 47 28.51994
 2018-Oct-22 16:00 C   22 32 52.563643 +44 47 31.67007
 2018-Oct-22 16:01 C   22 32 53.935159 +44 47 34.82089
 2018-Oct-22 16:02 C   22 32 55.306975 +44 47 37.97240
 2018-Oct-22 16:03 C   22 32 56.679089 +44 47 41.12460
 2018-Oct-22 16:04 C   22 32 58.051502 +44 47 44.27751
 2018-Oct-22 16:05 C   22 32 59.424212 +44 47 47.43112
 2018-Oct-22 16:06 C   22 33 00.797218 +44 47 50.58545
 2018-Oct-22 16:07 C   22 33 02.170520 +44 47 53.74049
 2018-Oct-22 16:08 C   22 33 03.544116 +44 47 56.89626
 2018-Oct-22 16:09 C   22 33 04.918006 +44 48 00.05277
